{
    "links": {
        "self": "http://www.neowsapp.com/rest/v1/neo/3552686?api_key=iIulBulltgU6a56xZRHN4H3l9WmuAYTsLGpBGhQ2"
    },
    "id": "3552686",
    "neo_reference_id": "3552686",
    "name": "(2010 XK)",
    "designation": "2010 XK",
    "nasa_jpl_url": "http://ssd.jpl.nasa.gov/sbdb.cgi?sstr=3552686",
    "absolute_magnitude_h": 22.8,
    "estimated_diameter": {
        "kilometers": {
            "estimated_diameter_min": 0.0732073989,
            "estimated_diameter_max": 0.1636967205
        },
        "meters": {
            "estimated_diameter_min": 73.2073989347,
            "estimated_diameter_max": 163.696720474
        },
        "miles": {
            "estimated_diameter_min": 0.0454889547,
            "estimated_diameter_max": 0.1017163949
        },
        "feet": {
            "estimated_diameter_min": 240.181762721,
            "estimated_diameter_max": 537.0627483999
        }
    },
    "is_potentially_hazardous_asteroid": false,
    "close_approach_data": [
        {
            "close_approach_date": "2010-12-04",
            "close_approach_date_full": "2010-Dec-04 17:30",
            "epoch_date_close_approach": 1291483800000,
            "relative_velocity": {
                "kilometers_per_second": "12.7899536803",
                "kilometers_per_hour": "46043.8332491239",
                "miles_per_hour": "28609.8473874904"
            },
            "miss_distance": {
                "astronomical": "0.242951183",
                "lunar": "94.508010187",
                "kilometers": "36344979.49078021",
                "miles": "22583723.034418498"
            },
            "orbiting_body": "Earth"
        },
        {
            "close_approach_date": "2011-06-02",
            "close_approach_date_full": "2011-Jun-02 21:05",
            "epoch_date_close_approach": 1307048700000,
            "relative_velocity": {
                "kilometers_per_second": "13.9995740718",
                "kilometers_per_hour": "50398.4666585624",
                "miles_per_hour": "31315.6472412606"
            },
            "miss_distance": {
                "astronomical": "0.1016768529",
                "lunar": "39.5522957781",
                "kilometers": "15210640.622143323",
                "miles": "9451453.8128629374"
            },
            "orbiting_body": "Earth"
        }
    ],
    "orbital_data": {
        "orbit_id": "9",
        "orbit_determination_date": "2017-04-06 08:55:28",
        "first_observation_date": "2010-12-01",
        "last_observation_date": "2010-12-09",
        "data_arc_in_days": 8,
        "observations_used": 24,
        "orbit_uncertainty": "8",
        "minimum_orbit_intersection": ".102479",
        "jupiter_tisserand_invariant": "5.644",
        "epoch_osculation": "2455533.5",
        "eccentricity": ".1789647223251897",
        "semi_major_axis": "1.077657098571884",
        "inclination": "24.36205614459328",
        "ascending_node_longitude": "70.28826634856176",
        "orbital_period": "408.6197162090448",
        "perihelion_distance": ".8847944951641969",
        "perihelion_argument": "144.1681252722277",
        "aphelion_distance": "1.27051970197957",
        "perihelion_time": "2455684.914805544205",
        "mean_anomaly": "226.6013218803483",
        "mean_motion": ".8810147570457135",
        "equinox": "J2000",
        "orbit_class": {
            "orbit_class_type": "APO",
            "orbit_class_description": "Near-Earth asteroid orbits which cross the Earth’s orbit similar to that of 1862 Apollo",
            "orbit_class_range": "a (semi-major axis) > 1.0 AU; q (perihelion) < 1.017 AU"
        }
    },
    "is_sentry_object": false
}